#dP2018  2  2  0  0  0.00000000      96 __u+U IGS08 FIT  IAC
## 1986 432000.00000000   900.00000000 58151 0.0000000000000
+   86   C01C02C03C04C05C06C07C08C09C10C11C12C13C14E01E02E03
+        E04E05E07E08E09E11E12E14E18E19E24E26E30G01G02G03G05
+        G06G07G08G09G10G11G12G13G14G15G16G17G19G20G21G22G23
+        G24G25G26G27G28G29G30G31G32J01J03R01R02R03R04R05R06
+        R07R08R09R10R11R13R14R15R16R17R18R19R20R21R22R23R24
+        R26  0  0  0  0  0  0  0  0  0  0  0  0  0  0  0  0
++        12 12  0 12 12  8  8  9  8  8  7  8  8  7  7  7  7
++         7  7  7  7  7  7  7  7  7  7  7  7  7  3  3  3  3
++         3  3  3  4  3  3  3  3  3  3  3  3  3  3  3  3  3
++         3  3  3  3  3  3  3  3  3  8 11  5  5  5  5  5  5
++         5  5  5  5  5  5  5  5  5  5  5  5  5  5  5  5  5
++         8  0  0  0  0  0  0  0  0  0  0  0  0  0  0  0  0
%c M  cc GPS ccc cccc cccc cccc cccc ccccc ccccc ccccc ccccc
%c cc cc ccc ccc cccc cccc cccc cccc ccccc ccccc ccccc ccccc
%f  1.2500000  1.025000000  0.00000000000  0.000000000000000
%f  0.0000000  0.000000000  0.00000000000  0.000000000000000
%i    0    0    0    0      0      0      0      0         0
%i    0    0    0    0      0      0      0      0         0
/* INFORMATION & ANALYSIS CENTER (IAC)            FINAL DATA
/* S/V CLOCKS ARE ALIGNED TO GPS & GLONASS TIME RESPECTIVELY
/* USING THE BROADCAST EPHEMERIS                            
/* PCV:IGS14_1984 OL/AL:FES2004  NONE     YN ORB:CoN CLK:CoN
*  2018 02 02 11 30  0.00000000
PC01 -32281.942688  27120.800197   1032.155776    316.445448
PC02   4348.825931  41931.396809   -929.162810   -197.768641
PC03      0.000000      0.000000      0.000000 999999.999999
PC04 -39658.592353  14395.918018    477.978630   -361.437402
PC05  21869.342361  36010.870978  -1275.321767   -138.658948
PC06  -7115.380217  31571.837271 -26642.828668   -679.130657
PC07 -19307.371068  21893.747927  30416.994909   -296.820323
PC08 -21789.617539  35882.873253  -4996.729231    151.490947
PC09   3284.986495  38835.847337 -15564.569845   -442.746702
PC10  -2967.555272  25323.342923  33680.610105     12.524976
PC11 -10061.439203 -16886.017837  19838.848831   -376.100415
PC12   2252.811226 -27423.747007   4397.362433    376.744624
PC13 -11084.408403  36803.776481 -17585.117708   -181.801618
PC14 -20031.852979 -19329.867232   2422.006933    181.050186
PE01  19026.564600  12486.068169  18926.478063   -267.345509
PE02 -19058.765908 -12474.641017 -18909.713758      3.512044
PE03 -17042.587212 -23736.843211  -4693.558196      5.482645
PE04  20473.210668   7492.589779  20018.601261     31.996717
PE05  -3616.759073 -26128.765912  13429.590084    329.802988
PE07 -11901.218357  13220.660450 -23658.035754     91.274101
PE08 -20450.222144  -7374.459253 -20087.145395   6649.578272
PE09  11699.982858 -13194.407654  23773.916934   6886.284466
PE11  18699.911721 -21579.523083  -7829.523916   1851.005469
PE12  19399.844602  -3753.992124 -22032.652079   3417.697107
PE14   1064.352058  26126.458821  -1258.221010   6637.714998
PE18   9269.447464 -27388.185740 -10662.947321   6457.936367
PE19  16178.570326  24615.781868   2871.228870     18.996617
PE24  22507.743555 -10279.698904 -16238.108118   6883.900848
PE26  -7286.911043  26638.408132 -10649.692491   6316.222801
PE30 -29508.249002  -1609.142254  -1820.378816   6109.980300
PG01  -7358.887884  18909.353246 -17119.147736    -26.655782
PG02  21932.307301 -14453.097825  -2176.486013    211.482493
PG03   2279.423153  16971.057405 -20334.138701      1.341883
PG05  17916.294773  -6306.139100  18546.117956    -15.352158
PG06  22616.698569  -4266.735702 -13236.207655    414.807081
PG07   8965.746278  12465.626097  21881.995365    242.690040
PG08  -5943.670414  23280.183433  11231.930631    -89.764059
PG09   8719.404870  23111.560984   9711.321861    498.054540
PG10 -24407.669596 -10512.039826  -1856.377482    154.677236
PG11  -6115.348569  24152.194507  -9952.848465   -735.473712
PG12    609.035451 -15943.243455 -21446.357917    352.392885
PG13  12204.520243 -16816.294976  16430.825576    -95.530964
PG14 -15083.668018    524.192650 -21573.663286    -93.353256
PG15   4006.134066 -24012.999494   9936.657983   -357.185082
PG16 -17780.770955   4181.982571  19296.827504     33.018028
PG17  13684.401629   9718.803834 -20235.627696   -126.351223
PG19  14922.338242    846.983973 -22233.171459   -459.762326
PG20  -1134.880911 -16735.762542  20456.800601    499.882440
PG21 -11787.470234 -11060.690295  21883.961087   -434.996561
PG22  -5661.329492  14831.862401 -21052.178978   -277.800043
PG23   1072.999525  26255.412129  -1341.944535   -219.031173
PG24   9673.306904 -19992.159240 -14463.845272    -45.551223
PG25 -13135.136244 -17853.926027 -14973.634623   -532.243288
PG26 -23876.097849  -2295.106268  11542.545845   -265.111290
PG27 -12446.960986  12573.041418  19670.011882    365.516550
PG28  22064.967507  14694.261414   1787.446329    685.206753
PG29  -4411.238120 -25407.194388   6392.230856    502.326635
PG30  16746.937886   6537.335679  19598.394896    107.199787
PG31 -23379.236254   4708.749248 -12074.802646    144.483981
PG32 -14923.963640  -8537.585768 -20239.154654   -532.894925
PJ01 -25994.915651  16678.636673 -24080.282278   -125.005547
PJ03 -25577.160035  26255.651651  26003.386063     -0.150513
PR01 -15442.203527  -3596.525863 -19980.326179     21.504141
PR02  -2376.577818  13390.062493 -21538.721214    293.231147
PR03  10977.981018  20964.553899  -9436.617752    123.039040
PR04  17977.377298  15955.757840   8526.388799    248.354657
PR05  14684.583206   2056.755002  20744.965146   -240.796266
PR06   1574.545053 -14191.305096  21128.805652    126.279698
PR07 -11197.535365 -21046.627592   9147.613860    -29.066429
PR08 -17865.805120 -16415.545665  -7832.389112    -27.035431
PR09  14964.286102 -10646.490907 -17720.104283     47.216730
PR10  -3987.803124 -10129.933890 -23084.601569     17.324854
PR11 -20715.344943  -3989.100111 -14299.480692    -20.876207
PR13 -14050.800963  10847.644240  18299.599650     -7.097389
PR14   3800.721765  10409.699889  22985.830430     24.363189
PR15  18114.679533   5383.592099  17081.666157     -5.923999
PR16  24901.911248  -4878.764184  -1915.597057     84.656709
PR17  -2525.786889  22029.834044 -12622.607629    105.939460
PR18   7355.987786   9393.330614 -22516.249914    183.354202
PR19  13416.987704  -8572.674921 -19921.926906    -43.354440
PR20  11651.030508 -22260.312041  -4545.304460   -325.700959
PR21   2359.261165 -21881.412084  12884.163528     21.365226
PR22  -8121.326033  -7778.613072  22917.968731    -15.429061
PR23 -13616.929694  11967.189401  17942.658914    133.867967
PR24 -11022.028951  22660.269367   3893.044948   -161.911156
PR26  11262.653148 -22386.423960  -4685.301149     -2.963279
EOF
